GLOBALSTAR M063 [+]     
1 26081U 00008A   24081.73613236 -.00000080  00000+0  38186-4 0  9999
2 26081  51.9936 223.1459 0005214 159.4329 309.7454 11.86152228103881
GLOBALSTAR M062 [-]     
1 26082U 00008B   24082.14894226  .00000028  00000+0  90038-3 0  9990
2 26082  51.9877 345.0532 0006475 225.1215 286.5075 12.43431781102885
GLOBALSTAR M064 [-]     
1 26084U 00008D   24081.85299734 -.00000044  00000+0  56506-3 0  9993
2 26084  52.0057 327.0032 0000724 278.0368  82.0383 11.88516349113314
GLOBALSTAR M069 [+]     
1 31573U 07020C   24081.35478309 -.00000061  00000+0  23940-3 0  9990
2 31573  51.9938 120.4337 0000583 179.3838 193.4300 12.62267677777367
GLOBALSTAR M071 [P]     
1 31576U 07020F   24081.57282959 -.00000060  00000+0  24442-3 0  9998
2 31576  52.0051 124.8653 0001129 194.1221 330.3390 12.62269718438571
